IRIDIUM 36 [-]          
1 24967U 97056C   23259.06733650  .00000601  00000+0  19853-3 0  9991
2 24967  86.3910  81.7424 0001850  87.8093 272.3316 14.36391827360290
IRIDIUM 39 [-]          
1 25042U 97069D   23258.70037739  .00000732  00000+0  19428-3 0  9998
2 25042  86.3909 125.4370 0016503 285.6207  74.3174 14.47348062356523
IRIDIUM 38 [-]          
1 25043U 97069E   23258.60533574  .00000576  00000+0  18817-3 0  9993
2 25043  86.3991 142.4469 0004096  70.2513 289.9126 14.36872764353937
IRIDIUM 42 [-]          
1 25077U 97077A   23258.96033246  .00000351  00000+0  11603-3 0  9996
2 25077  86.4007 147.6828 0002682  76.5293 283.6202 14.35189152349338
IRIDIUM 44 [-]          
1 25078U 97077B   23258.60663109  .00000569  00000+0  17834-3 0  9998
2 25078  86.3961 131.4906 0002265  33.5083 326.6258 14.38971989351547
IRIDIUM 45 [-]          
1 25104U 97082A   23258.97283162  .00015627  00000+0  10197-2 0  9996
2 25104  86.3824 350.6009 0183336 153.9776 207.0817 14.94875443355883
IRIDIUM 24 [-]          
1 25105U 97082B   23258.96338051  .00000700  00000+0  21285-3 0  9991
2 25105  86.3975 351.3898 0012702  39.9549 320.2583 14.40723286351246
IRIDIUM 51 [-]          
1 25262U 98018A   23258.74211447  .00015011  00000+0  84106-3 0  9992
2 25262  86.3989   1.3112 0169923 110.9725 250.9784 15.01713658350173
